STARLINK-4206           
1 52847U 22062T   26068.31586469 -.00000451  00000+0 -10231-4 0  9994
2 52847  53.2187  35.7988 0001565  97.4510 262.6660 15.08840143205736
LEMUR-2-STELLA          
1 60533U 24149BT  26068.72657350  .00013685  00000+0  85776-3 0  9992
2 60533  97.6764 150.9122 0001299  95.1117 265.0260 15.09464064 85488
